STARLINK-1470           
1 45772U 20038AU  26068.60892913  .00054678  00000+0  19687-2 0  9990
2 45772  53.0480 174.6971 0002444  12.8687 347.2373 15.28074860317065
STARLINK-31783          
1 59750U 24090W   26068.34833197 -.00001420  00000+0 -42087-4 0  9994
2 59750  43.0002 185.7862 0001719 288.5690  71.4975 15.27582441103376
