[{"OBJECT_NAME":"STARLINK-1470","OBJECT_ID":"2020-038AU","EPOCH":"2026-03-09T14:36:51.476832","MEAN_MOTION":15.2807486,"ECCENTRICITY":0.0002444,"INCLINATION":53.048,"RA_OF_ASC_NODE":174.6971,"ARG_OF_PERICENTER":12.8687,"MEAN_ANOMALY":347.2373,"EPHEMERIS_TYPE":0,"CLASSIFICATION_TYPE":"U","NORAD_CAT_ID":45772,"ELEMENT_SET_NO":999,"REV_AT_EPOCH":31706,"BSTAR":0.0019687,"MEAN_MOTION_DOT":0.00054678,"MEAN_MOTION_DDOT":0},{"OBJECT_NAME":"STARLINK-31783","OBJECT_ID":"2024-090W","EPOCH":"2026-03-09T08:21:35.882208","MEAN_MOTION":15.27582441,"ECCENTRICITY":0.00017197,"INCLINATION":43.0002,"RA_OF_ASC_NODE":185.7862,"ARG_OF_PERICENTER":288.569,"MEAN_ANOMALY":71.4975,"EPHEMERIS_TYPE":0,"CLASSIFICATION_TYPE":"U","NORAD_CAT_ID":59750,"ELEMENT_SET_NO":999,"REV_AT_EPOCH":10337,"BSTAR":-4.2087151e-5,"MEAN_MOTION_DOT":-1.42e-5,"MEAN_MOTION_DDOT":0}]
